{"spkid": "50841741", "covariance": {"labels": ["e", "q", "tp", "node", "peri", "i"], "elements": [{"label": "e", "value": ".5166135654294532", "title": "eccentricity", "units": null, "sigma": 1.68467341616698e-07, "name": "e"}, {"units": "au", "value": "1.009823481424866", "title": "perihelion distance", "sigma": 3.48419801507479e-07, "name": "q", "label": "q"}, {"label": "tp", "units": "TDB", "title": "time of perihelion passage", "value": "2459694.618827737775", "name": "tp", "sigma": 0.000124757490298015}, {"title": "longitude of the ascending node", "value": "226.2543164393837", "units": "deg", "name": "om", "sigma": 1.7146851179463e-05, "label": "node"}, {"name": "w", "sigma": 0.000152901180124371, "units": "deg", "value": "338.5836784310598", "title": "argument of perihelion", "label": "peri"}, {"label": "i", "name": "i", "sigma": 2.8617145167057e-05, "units": "deg", "value": "6.680533223519916", "title": "inclination"}], "data": [["2.838124519139738E-14", "-5.869266347120473E-14", "-2.027226577914344E-11", "-1.889146976058668E-12", "-2.447572700491359E-11", "2.301239101614583E-12"], ["-5.869266347120473E-14", "1.213963580825109E-13", "4.185460195208886E-11", "3.917230948363273E-12", "5.049524677692478E-11", "-4.696921596134622E-12"], ["-2.027226577914344E-11", "4.185460195208886E-11", "1.556443138545925E-8", "1.179648407161119E-9", "1.898651628488807E-8", "-2.211897800895896E-9"], ["-1.889146976058668E-12", "3.917230948363273E-12", "1.179648407161119E-9", "2.940145053706531E-10", "1.253492201327961E-9", "-1.10528522769657E-10"], ["-2.447572700491359E-11", "5.049524677692478E-11", "1.898651628488807E-8", "1.253492201327961E-9", "2.337877088342528E-8", "-2.773829371558001E-9"], ["2.301239101614583E-12", "-4.696921596134622E-12", "-2.211897800895896E-9", "-1.10528522769657E-10", "-2.773829371558001E-9", "8.189409975124121E-10"]], "epoch": "2459244.5"}, "elements": [{"label": "e", "name": "e", "sigma": "1.5855E-7", "title": "eccentricity", "value": ".5147622774388583", "units": null}, {"sigma": "1.4409E-8", "name": "a", "units": "au", "title": "semi-major axis", "value": "2.093872529725537", "label": "a"}, {"label": "q", "title": "perihelion distance", "value": "1.016025937657356", "units": "au", "name": "q", "sigma": "3.2586E-7"}, {"units": "deg", "title": "inclination; angle with respect to x-y ecliptic plane", "value": "6.688451219781564", "sigma": "2.8557E-5", "name": "i", "label": "i"}, {"name": "om", "sigma": "1.6845E-5", "units": "deg", "value": "226.1233534888803", "title": "longitude of the ascending node", "label": "node"}, {"name": "w", "sigma": ".0001558", "units": "deg", "title": "argument of perihelion", "value": "338.9282059038768", "label": "peri"}, {"label": "M", "sigma": "4.3298E-5", "name": "ma", "title": "mean anomaly", "value": "129.5451437090602", "units": "deg"}, {"units": "TDB", "value": "2460802.262253138116", "title": "time of perihelion passage", "sigma": ".00013679", "name": "tp", "label": "tp"}, {"label": "period", "sigma": "1.1424E-5", "name": "per", "value": "1106.684394069274", "title": "sidereal orbital period", "units": "d"}, {"label": "n", "value": ".325295993988206", "title": "mean motion", "units": "deg/d", "sigma": "3.3578E-9", "name": "n"}, {"label": "Q", "sigma": "2.1826E-8", "name": "ad", "units": "au", "title": "aphelion distance", "value": "3.171719121793719"}], "epoch": "2461200.5"}